{
    "links": {
        "self": "http://www.neowsapp.com/rest/v1/neo/3653696?api_key=iIulBulltgU6a56xZRHN4H3l9WmuAYTsLGpBGhQ2"
    },
    "id": "3653696",
    "neo_reference_id": "3653696",
    "name": "(2013 VQ13)",
    "designation": "2013 VQ13",
    "nasa_jpl_url": "http://ssd.jpl.nasa.gov/sbdb.cgi?sstr=3653696",
    "absolute_magnitude_h": 24.4,
    "estimated_diameter": {
        "kilometers": {
            "estimated_diameter_min": 0.0350392641,
            "estimated_diameter_max": 0.0783501764
        },
        "meters": {
            "estimated_diameter_min": 35.0392641108,
            "estimated_diameter_max": 78.3501764334
        },
        "miles": {
            "estimated_diameter_min": 0.0217723826,
            "estimated_diameter_max": 0.0486845275
        },
        "feet": {
            "estimated_diameter_min": 114.9582192654,
            "estimated_diameter_max": 257.0543928497
        }
    },
    "is_potentially_hazardous_asteroid": false,
    "close_approach_data": [
        {
            "close_approach_date": "2013-11-09",
            "close_approach_date_full": "2013-Nov-09 14:18",
            "epoch_date_close_approach": 1384006680000,
            "relative_velocity": {
                "kilometers_per_second": "14.7382749888",
                "kilometers_per_hour": "53057.7899596868",
                "miles_per_hour": "32968.047322451"
            },
            "miss_distance": {
                "astronomical": "0.0818907287",
                "lunar": "31.8554934643",
                "kilometers": "12250678.586267869",
                "miles": "7612218.6902358322"
            },
            "orbiting_body": "Earth"
        }
    ],
    "orbital_data": {
        "orbit_id": "5",
        "orbit_determination_date": "2017-04-06 08:43:38",
        "first_observation_date": "2013-11-11",
        "last_observation_date": "2013-11-14",
        "data_arc_in_days": 3,
        "observations_used": 19,
        "orbit_uncertainty": "8",
        "minimum_orbit_intersection": ".0816938",
        "jupiter_tisserand_invariant": "4.548",
        "epoch_osculation": "2456608.5",
        "eccentricity": ".2508642590783817",
        "semi_major_axis": "1.427376572134632",
        "inclination": "27.1127514441993",
        "ascending_node_longitude": "46.96874622246609",
        "orbital_period": "622.8827063335854",
        "perihelion_distance": "1.069298805940237",
        "perihelion_argument": "9.540941849792935",
        "aphelion_distance": "1.785454338329026",
        "perihelion_time": "2456615.056271263327",
        "mean_anomaly": "356.2107510277646",
        "mean_motion": ".577957930665684",
        "equinox": "J2000",
        "orbit_class": {
            "orbit_class_type": "AMO",
            "orbit_class_description": "Near-Earth asteroid orbits similar to that of 1221 Amor",
            "orbit_class_range": "1.017 AU < q (perihelion) < 1.3 AU"
        }
    },
    "is_sentry_object": false
}